[Satellite]
VERSION=1.1
NAME=CUBEBUG-1 (CAPITAN BETO)
NICKNAME=CUBEBUG-1 (CAPITAN BETO)
TLE1=1 39153U 13018D   17186.20903618  .00000118  00000-0  22535-4 0  9997
TLE2=2 39153  97.9861 278.4095 0016773 355.2259   4.8790 14.80188307226258
